OBJECT_NAME,OBJECT_ID,EPOCH,MEAN_MOTION,ECCENTRICITY,INCLINATION,RA_OF_ASC_NODE,ARG_OF_PERICENTER,MEAN_ANOMALY,EPHEMERIS_TYPE,CLASSIFICATION_TYPE,NORAD_CAT_ID,ELEMENT_SET_NO,REV_AT_EPOCH,BSTAR,MEAN_MOTION_DOT,MEAN_MOTION_DDOT
ONEWEB-0572,2023-004M,2026-07-20T22:20:59.837568,13.17647609,.00020047,87.9152,359.1527,91.5542,268.5819,0,U,55151,999,17192,-.3962509E-5,.11E-6,0
ONEWEB-0573,2023-004N,2026-07-21T02:35:00.230784,13.18684538,.0002735,87.9193,328.7232,92.2965,267.8480,0,U,55152,999,17416,.79001364E-4,.44E-6,0
ONEWEB-0588,2023-004P,2026-07-21T02:25:17.847264,13.18687025,.00020405,87.9191,328.7241,84.9061,275.2304,0,U,55153,999,17416,-.80099904E-4,-.19E-6,0
ONEWEB-0598,2023-004Q,2026-07-21T04:31:36.494112,13.11415778,.00025519,87.8889,14.2977,95.5140,264.6279,0,U,55154,999,17035,-.10275698E-2,-.351E-5,0
ONEWEB-0599,2023-004R,2026-07-20T21:25:06.021984,13.17647689,.0001947,87.9152,359.1590,100.9004,259.2346,0,U,55155,999,17192,.39315631E-4,.28E-6,0
ONEWEB-0614,2023-004S,2026-07-21T00:44:32.991360,13.11414937,.00016757,87.8886,14.3369,85.5411,274.5908,0,U,55156,999,17027,-.4072507E-3,-.132E-5,0
ONEWEB-0616,2023-004T,2026-07-20T22:25:50.874240,13.17647758,.00020338,87.9153,359.1547,121.2911,238.8420,0,U,55157,999,17214,-.61651172E-4,-.11E-6,0
ONEWEB-0617,2023-004U,2026-07-21T00:27:27.157248,13.11416486,.00017814,87.8893,14.3324,80.1051,280.0278,0,U,55158,999,17029,.97436269E-3,.358E-5,0
ONEWEB-0618,2023-004V,2026-07-20T21:58:20.604000,15.13437732,.001312,86.9106,163.9395,155.3167,204.8704,0,U,55159,999,18736,.24542873E-3,.4425E-4,0
ONEWEB-0619,2023-004W,2026-07-21T04:40:03.681120,13.17647931,.00014199,87.9165,359.0868,95.5265,264.6028,0,U,55160,999,17207,.17632375E-3,.81E-6,0
ONEWEB-0620,2023-004X,2026-07-21T00:20:08.512224,13.11416332,.00020939,87.8886,14.3399,89.4125,270.7242,0,U,55161,999,17026,.1229473E-2,.448E-5,0
ONEWEB-0621,2023-004Y,2026-07-21T04:38:56.047200,13.11415690,.00016385,87.8894,14.2962,86.1550,273.9765,0,U,55162,999,17026,-.12962447E-2,-.447E-5,0
ONEWEB-0622,2023-004Z,2026-07-21T04:46:15.427488,13.11416261,.00019787,87.8898,14.2979,69.9245,290.2095,0,U,55163,999,17025,-.15921941E-2,-.552E-5,0
ONEWEB-0623,2023-004AA,2026-07-21T04:32:47.018112,13.17648479,.0001405,87.9151,359.1139,71.2309,288.8975,0,U,55164,999,17206,.33629245E-4,.26E-6,0
ONEWEB-0624,2023-004AB,2026-07-20T22:55:52.289184,13.12928405,.0001747,87.8974,343.8659,92.4893,267.6436,0,U,55165,999,17250,-.89805057E-3,-.313E-5,0
ONEWEB-0625,2023-004AC,2026-07-21T04:18:11.914848,13.17647225,.00017877,87.9154,359.1123,99.3045,260.8289,0,U,55166,999,17205,-.32933114E-4,0,0
ONEWEB-0626,2023-004AD,2026-07-20T22:35:35.457504,13.17647837,.00021886,87.9153,359.1592,96.8381,263.2999,0,U,55167,999,17202,-.12905945E-3,-.37E-6,0
ONEWEB-0627,2023-004AE,2026-07-21T03:46:37.323552,13.17648350,.00015608,87.9153,359.1168,80.6324,279.4984,0,U,55168,999,17205,-.20440859E-3,-.66E-6,0
ONEWEB-0628,2023-004AF,2026-07-20T22:47:04.276320,13.12437942,.00013097,87.8977,343.9413,84.2558,275.8720,0,U,55169,999,17246,-.84249008E-3,-.29E-5,0
ONEWEB-0629,2023-004AG,2026-07-21T03:11:22.554816,13.17650652,.00015538,87.9153,359.1174,96.0275,264.1033,0,U,55170,999,17205,.86485733E-4,.46E-6,0
ONEWEB-0631,2023-004AH,2026-07-21T02:15:35.215776,13.18686843,.00022427,87.9200,328.6948,88.1852,271.9537,0,U,55171,999,17414,.39160785E-4,.28E-6,0
ONEWEB-0709,2023-004AJ,2026-07-21T05:35:06.396288,13.11418078,.00027287,87.8888,14.2988,95.0027,265.1413,0,U,55172,999,17033,.15762209E-2,.571E-5,0
ONEWEB-0710,2023-004AK,2026-07-20T23:53:20.593536,13.17648767,.00018505,87.9152,359.1401,88.6557,271.4787,0,U,55173,999,17203,-.29503649E-3,-.102E-5,0
ONEWEB-0711,2023-004AL,2026-07-21T04:53:34.800864,13.11417554,.00016741,87.8892,14.2930,68.5423,291.5883,0,U,55174,999,17029,-.15448492E-2,-.535E-5,0
ONEWEB-0713,2023-004AM,2026-07-20T23:50:51.319392,13.11418321,.0001743,87.8893,14.3369,79.5220,280.6105,0,U,55175,999,17025,.61109915E-3,.229E-5,0
ONEWEB-0715,2023-004AN,2026-07-21T05:13:07.799232,13.11418029,.00025168,87.8892,14.2926,87.1735,272.9681,0,U,55176,999,17032,-.19192206E-3,-.55E-6,0
ONEWEB-0716,2023-004AP,2026-07-21T03:22:19.039296,13.17649393,.0001823,87.9152,359.1139,100.7544,259.3793,0,U,55177,999,17205,.15698984E-3,.74E-6,0
ONEWEB-0717,2023-004AQ,2026-07-21T04:47:21.587424,13.17647794,.00019065,87.9164,359.0932,77.1141,283.0204,0,U,55178,999,17211,-.78404E-6,.13E-6,0
ONEWEB-0719,2023-004AR,2026-07-20T23:33:53.280288,13.17647673,.00017198,87.9162,359.1165,98.8202,261.3124,0,U,55179,999,17203,.3344593E-5,.14E-6,0
ONEWEB-0530,2023-029A,2026-07-20T17:25:20.938656,13.20770090,.00017334,87.9171,267.7827,88.3461,271.7871,0,U,55796,999,16557,-.75144199E-4,-.18E-6,0
